COSMOS 2425 (716)       
1 29670U 06062A   21201.09146311  .00000066  00000-0  00000-0 0  9991
2 29670  64.8342 254.3469 0023863 340.7791  10.8009  2.13116180113364
COSMOS 2433 (720)       
1 32275U 07052A   21201.82153384 -.00000043  00000-0  00000+0 0  9990
2 32275  66.0636  15.6772 0001353 175.9708 187.6734  2.13104289106907
COSMOS 2432 (719)       
1 32276U 07052B   21201.47522896 -.00000041  00000-0  00000-0 0  9999
2 32276  66.0835  15.7837 0008506 342.5682  64.6190  2.13103651106892
COSMOS 2434 (721)       
1 32393U 07065A   21201.85250037  .00000073  00000-0  00000-0 0  9994
2 32393  64.4517 252.7641 0001735 131.1042 144.7903  2.13103212105609
COSMOS 2436 (723)       
1 32395U 07065C   21202.11879682  .00000073  00000-0  00000+0 0  9998
2 32395  64.4596 252.8078 0013901 353.7673 262.5119  2.13103103105543
COSMOS 2456 (730)       
1 36111U 09070A   21202.12577955 -.00000022  00000-0  00000+0 0  9990
2 36111  64.2812 132.4271 0005364 309.8242 345.8207  2.13099371 90275
COSMOS 2457 (733)       
1 36112U 09070B   21201.80923356 -.00000019  00000-0  00000+0 0  9991
2 36112  64.2647 132.3236 0004252 182.2356 355.2199  2.13101612 90273
COSMOS 2459 (731)       
1 36400U 10007A   21200.66436147 -.00000038  00000-0  00000-0 0  9995
2 36400  65.9652  14.6353 0025336 352.2911  61.6183  2.13108724 88595
COSMOS 2461 (735)       
1 36401U 10007B   21201.32894101 -.00000041  00000-0  00000-0 0  9992
2 36401  65.9579  14.5768 0020172  14.3780 189.2688  2.13103783 88616
COSMOS 2460 (732)       
1 36402U 10007C   21201.67638925 -.00000044  00000-0  00000-0 0  9994
2 36402  65.9455  14.5224 0002678  92.2405 323.0834  2.13106595 88623
COSMOS 2464 (736)       
1 37139U 10041C   21201.98410214  .00000074  00000-0  00000+0 0  9994
2 37139  64.0516 252.0002 0026569   7.3289 230.1927  2.13100842 84686
COSMOS 2471 (701K)      
1 37372U 11009A   21201.71569117 -.00000044  00000-0  00000-0 0  9995
2 37372  65.9395  14.4477 0015018 224.0878   5.3423  2.13052322 80896
COSMOS 2476 (744)       
1 37867U 11064A   21201.78840189 -.00000017  00000-0  00000+0 0  9992
2 37867  64.5768 133.6650 0021536 240.5935  58.8684  2.13101916 75610
COSMOS 2477 (745)       
1 37868U 11064B   21200.50711226 -.00000003  00000-0  00000-0 0  9997
2 37868  64.5847 133.7697 0018918 241.5489 333.2562  2.13101863 75544
COSMOS 2475 (743)       
1 37869U 11064C   21201.58230987 -.00000016  00000-0  00000-0 0  9991
2 37869  64.5914 133.7387 0023283 259.7781  17.6032  2.13102159 75570
COSMOS 2485 (747)       
1 39155U 13019A   21201.58889909 -.00000015  00000-0  00000-0 0  9996
2 39155  64.7420 134.0283 0022030 236.4090 314.4665  2.13102041 64081
COSMOS 2492 (754)       
1 39620U 14012A   21201.77987613 -.00000045  00000-0  00000+0 0  9991
2 39620  65.8322  14.2461 0011399 333.3539  38.8153  2.13103303 57048
COSMOS 2500 (755)       
1 40001U 14032A   21202.01475748 -.00000047  00000-0  00000+0 0  9999
2 40001  65.7746  14.1261 0006027 180.4064 231.5138  2.13102478 55264
COSMOS 2501 (702K)      
1 40315U 14075A   21202.12183319  .00000072  00000-0  00000+0 0  9993
2 40315  63.7627 252.7906 0018634 212.0172  88.5424  2.13101426 51663
COSMOS 2514 (751)       
1 41330U 16008A   21201.69233534 -.00000045  00000-0  00000+0 0  9996
2 41330  65.5766  13.9087 0009077 198.2461 149.5209  2.13102963 42418
COSMOS 2516 (753)       
1 41554U 16032A   21201.54428325  .00000070  00000-0  00000-0 0  9997
2 41554  63.9880 252.9923 0015218 218.7587 271.3656  2.13107218 40023
COSMOS 2522 (752)       
1 42939U 17055A   21201.71148115  .00000071  00000-0  00000+0 0  9996
2 42939  64.2222 253.2857 0009214 243.0022 237.8100  2.13102014 29789
COSMOS 2527 (756)       
1 43508U 18053A   21201.97690105 -.00000018  00000-0  00000+0 0  9999
2 43508  64.9067 133.9466 0008342 238.5414 117.9971  2.13102547 24073
COSMOS 2529 (757)       
1 43687U 18086A   21202.10208186  .00000072  00000-0  00000+0 0  9992
2 43687  64.4354 253.4979 0011217 264.3782 111.6601  2.13102194 21102
COSMOS 2534 (758)       
1 44299U 19030A   21202.19920676  .00000072  00000-0  00000+0 0  9996
2 44299  64.5073 253.3497 0013676 282.7662 302.6046  2.13102149 16746
COSMOS 2544 (759)       
1 44850U 19088A   21201.85705806 -.00000018  00000-0  00000-0 0  9992
2 44850  64.8908 133.8096 0013209 265.5034  42.8270  2.13102323 12506
COSMOS 2545 (760)       
1 45358U 20018A   21201.71525314 -.00000047  00000-0  00000+0 0  9991
2 45358  64.9074  14.7899 0006615 239.2871 170.2263  2.13102792 10464
